start=new Date('2022-11-13T00:00:00.000Z').valueOf();
sats=[{"SITE":"AFETR","ECCENTRICITY":"0.00022440","LAUNCH_DATE":"2022-05-18","GP_ID":"217589716","TLE_LINE2":"2 52677  53.2146 188.5289 0002244  39.1981 320.9173 15.08854295 28062","MEAN_ANOMALY":"320.9173","RCS_SIZE":"LARGE","MEAN_MOTION":"15.08854295","REV_AT_EPOCH":"2806","EPHEMERIS_TYPE":"0","ARG_OF_PERICENTER":"39.1981","CLASSIFICATION_TYPE":"U","RA_OF_ASC_NODE":"188.5289","EPOCH":"2022-11-12T21:39:49.382496","DECAY_DATE":null,"SEMIMAJOR_AXIS":"6917.837","PERIOD":"95.437","TIME_SYSTEM":"UTC","REF_FRAME":"TEME","MEAN_ELEMENT_THEORY":"SGP4","APOAPSIS":"541.254","PERIAPSIS":"538.149","NORAD_CAT_ID":"52677","TLE_LINE1":"1 52677U 22053X   22316.90265489  .00007071  00000-0  46171-3 0  9993","MEAN_MOTION_DDOT":"0.0000000000000","MEAN_MOTION_DOT":"0.00007071","CENTER_NAME":"EARTH","COUNTRY_CODE":"US","FILE":"3652635","OBJECT_ID":"2022-053X","OBJECT_NAME":"STARLINK-4028","OBJECT_TYPE":"PAYLOAD","BSTAR":"0.00046171000000","ELEMENT_SET_NO":"999","INCLINATION":"53.2146"},{"PERIOD":"95.436","SEMIMAJOR_AXIS":"6917.813","NORAD_CAT_ID":"52678","PERIAPSIS":"538.022","TLE_LINE1":"1 52678U 22053Y   22316.91098049  .00004783  00000-0  31821-3 0  9994","MEAN_ELEMENT_THEORY":"SGP4","REF_FRAME":"TEME","TIME_SYSTEM":"UTC","APOAPSIS":"541.333","FILE":"3652635","OBJECT_ID":"2022-053Y","OBJECT_NAME":"STARLINK-4074","MEAN_MOTION_DDOT":"0.0000000000000","MEAN_MOTION_DOT":"0.00004783","COUNTRY_CODE":"US","CENTER_NAME":"EARTH","INCLINATION":"53.2145","ELEMENT_SET_NO":"999","OBJECT_TYPE":"PAYLOAD","BSTAR":"0.00031821000000","GP_ID":"217590055","LAUNCH_DATE":"2022-05-18","ECCENTRICITY":"0.00023930","SITE":"AFETR","RCS_SIZE":"LARGE","TLE_LINE2":"2 52678  53.2145 188.4934 0002393  43.0219 317.0960 15.08862135 28086","MEAN_ANOMALY":"317.0960","EPHEMERIS_TYPE":"0","REV_AT_EPOCH":"2808","MEAN_MOTION":"15.08862135","RA_OF_ASC_NODE":"188.4934","DECAY_DATE":null,"EPOCH":"2022-11-12T21:51:48.714336","CLASSIFICATION_TYPE":"U","ARG_OF_PERICENTER":"43.0219"},{"FILE":"3652635","OBJECT_ID":"2022-053Z","OBJECT_NAME":"STARLINK-4031","MEAN_MOTION_DOT":"0.00005346","MEAN_MOTION_DDOT":"0.0000000000000","COUNTRY_CODE":"US","CENTER_NAME":"EARTH","INCLINATION":"53.2172","OBJECT_TYPE":"PAYLOAD","ELEMENT_SET_NO":"999","BSTAR":"0.00035378000000","PERIOD":"95.438","SEMIMAJOR_AXIS":"6917.895","NORAD_CAT_ID":"52679","PERIAPSIS":"538.498","TLE_LINE1":"1 52679U 22053Z   22316.89163205  .00005346  00000-0  35378-3 0  9996","MEAN_ELEMENT_THEORY":"SGP4","REF_FRAME":"TEME","TIME_SYSTEM":"UTC","APOAPSIS":"541.022","EPHEMERIS_TYPE":"0","REV_AT_EPOCH":"2804","MEAN_MOTION":"15.08835278","RA_OF_ASC_NODE":"188.5831","EPOCH":"2022-11-12T21:23:57.009120","DECAY_DATE":null,"CLASSIFICATION_TYPE":"U","ARG_OF_PERICENTER":"39.7531","GP_ID":"217589886","LAUNCH_DATE":"2022-05-18","ECCENTRICITY":"0.00018240","SITE":"AFETR","RCS_SIZE":"LARGE","TLE_LINE2":"2 52679  53.2172 188.5831 0001824  39.7531 320.3594 15.08835278 28045","MEAN_ANOMALY":"320.3594"},{"INCLINATION":"53.2136","OBJECT_TYPE":"PAYLOAD","BSTAR":"0.00029479000000","ELEMENT_SET_NO":"999","COUNTRY_CODE":"US","CENTER_NAME":"EARTH","MEAN_MOTION_DDOT":"0.0000000000000","MEAN_MOTION_DOT":"0.00004409","OBJECT_ID":"2022-053AA","OBJECT_NAME":"STARLINK-3774","FILE":"3652635","APOAPSIS":"541.109","MEAN_ELEMENT_THEORY":"SGP4","REF_FRAME":"TEME","TIME_SYSTEM":"UTC","TLE_LINE1":"1 52680U 22053AA  22316.90634317  .00004409  00000-0  29479-3 0  9991","NORAD_CAT_ID":"52680","PERIAPSIS":"538.262","PERIOD":"95.436","SEMIMAJOR_AXIS":"6917.821","CLASSIFICATION_TYPE":"U","ARG_OF_PERICENTER":"40.2364","DECAY_DATE":null,"EPOCH":"2022-11-12T21:45:08.049888","RA_OF_ASC_NODE":"188.5103","MEAN_MOTION":"15.08859524","EPHEMERIS_TYPE":"0","REV_AT_EPOCH":"2806","MEAN_ANOMALY":"319.8780","TLE_LINE2":"2 52680  53.2136 188.5103 0002058  40.2364 319.8780 15.08859524 28062","RCS_SIZE":"LARGE","ECCENTRICITY":"0.00020580","SITE":"AFETR","GP_ID":"217589291","LAUNCH_DATE":"2022-05-18"},{"EPHEMERIS_TYPE":"0","REV_AT_EPOCH":"2804","MEAN_MOTION":"15.08831260","EPOCH":"2022-11-12T21:18:39.051072","DECAY_DATE":null,"RA_OF_ASC_NODE":"188.5875","CLASSIFICATION_TYPE":"U","ARG_OF_PERICENTER":"34.8194","LAUNCH_DATE":"2022-05-18","GP_ID":"217589301","ECCENTRICITY":"0.00024460","SITE":"AFETR","RCS_SIZE":"LARGE","MEAN_ANOMALY":"325.2958","TLE_LINE2":"2 52681  53.2160 188.5875 0002446  34.8194 325.2958 15.08831260 28040","OBJECT_NAME":"STARLINK-4068","OBJECT_ID":"2022-053AB","FILE":"3652635","COUNTRY_CODE":"US","CENTER_NAME":"EARTH","MEAN_MOTION_DDOT":"0.0000000000000","MEAN_MOTION_DOT":"0.00003382","INCLINATION":"53.2160","OBJECT_TYPE":"PAYLOAD","BSTAR":"0.00023054000000","ELEMENT_SET_NO":"999","PERIOD":"95.438","SEMIMAJOR_AXIS":"6917.907","TLE_LINE1":"1 52681U 22053AB  22316.88795198  .00003382  00000-0  23054-3 0  9996","NORAD_CAT_ID":"52681","PERIAPSIS":"538.080","APOAPSIS":"541.464","REF_FRAME":"TEME","MEAN_ELEMENT_THEORY":"SGP4","TIME_SYSTEM":"UTC"},{"EPHEMERIS_TYPE":"0","REV_AT_EPOCH":"2806","MEAN_MOTION":"15.08849574","RA_OF_ASC_NODE":"188.5383","DECAY_DATE":null,"EPOCH":"2022-11-12T21:34:32.216736","CLASSIFICATION_TYPE":"U","ARG_OF_PERICENTER":"34.8246","GP_ID":"217589641","LAUNCH_DATE":"2022-05-18","ECCENTRICITY":"0.00022850","SITE":"AFETR","RCS_SIZE":"LARGE","TLE_LINE2":"2 52682  53.2159 188.5383 0002285  34.8246 325.2896 15.08849574 28062","MEAN_ANOMALY":"325.2896","FILE":"3652635","OBJECT_ID":"2022-053AC","OBJECT_NAME":"STARLINK-4017","MEAN_MOTION_DOT":"0.00001479","MEAN_MOTION_DDOT":"0.0000000000000","COUNTRY_CODE":"US","CENTER_NAME":"EARTH","INCLINATION":"53.2159","BSTAR":"0.00011099000000","OBJECT_TYPE":"PAYLOAD","ELEMENT_SET_NO":"999","PERIOD":"95.437","SEMIMAJOR_AXIS":"6917.851","NORAD_CAT_ID":"52682","PERIAPSIS":"538.135","TLE_LINE1":"1 52682U 22053AC  22316.89898399  .00001479  00000-0  11099-3 0  9996","REF_FRAME":"TEME","MEAN_ELEMENT_THEORY":"SGP4","TIME_SYSTEM":"UTC","APOAPSIS":"541.297"},{"FILE":"3652635","OBJECT_NAME":"STARLINK-4039","OBJECT_ID":"2022-053AD","MEAN_MOTION_DOT":"0.00002816","MEAN_MOTION_DDOT":"0.0000000000000","COUNTRY_CODE":"US","CENTER_NAME":"EARTH","INCLINATION":"53.2160","BSTAR":"0.00019491000000","OBJECT_TYPE":"PAYLOAD","ELEMENT_SET_NO":"999","PERIOD":"95.437","SEMIMAJOR_AXIS":"6917.868","NORAD_CAT_ID":"52683","PERIAPSIS":"538.381","TLE_LINE1":"1 52683U 22053AD  22316.81434024  .00002816  00000-0  19491-3 0  9990","REF_FRAME":"TEME","MEAN_ELEMENT_THEORY":"SGP4","TIME_SYSTEM":"UTC","APOAPSIS":"541.085","EPHEMERIS_TYPE":"0","REV_AT_EPOCH":"2803","MEAN_MOTION":"15.08844013","RA_OF_ASC_NODE":"188.9229","DECAY_DATE":null,"EPOCH":"2022-11-12T19:32:38.996736","CLASSIFICATION_TYPE":"U","ARG_OF_PERICENTER":"51.7545","GP_ID":"217589471","LAUNCH_DATE":"2022-05-18","ECCENTRICITY":"0.00019540","SITE":"AFETR","RCS_SIZE":"LARGE","TLE_LINE2":"2 52683  53.2160 188.9229 0001954  51.7545 308.3623 15.08844013 28030","MEAN_ANOMALY":"308.3623"},{"INCLINATION":"53.2146","ELEMENT_SET_NO":"999","OBJECT_TYPE":"PAYLOAD","BSTAR":"0.00077707000000","OBJECT_ID":"2022-053AE","OBJECT_NAME":"STARLINK-4014","FILE":"3652635","COUNTRY_CODE":"US","CENTER_NAME":"EARTH","MEAN_MOTION_DDOT":"0.0000000000000","MEAN_MOTION_DOT":"0.00012105","TLE_LINE1":"1 52684U 22053AE  22316.89529482  .00012105  00000-0  77707-3 0  9998","NORAD_CAT_ID":"52684","PERIAPSIS":"538.062","APOAPSIS":"541.349","REF_FRAME":"TEME","MEAN_ELEMENT_THEORY":"SGP4","TIME_SYSTEM":"UTC","PERIOD":"95.437","SEMIMAJOR_AXIS":"6917.841","EPOCH":"2022-11-12T21:29:13.472448","DECAY_DATE":null,"RA_OF_ASC_NODE":"188.5616","CLASSIFICATION_TYPE":"U","ARG_OF_PERICENTER":"41.2545","EPHEMERIS_TYPE":"0","REV_AT_EPOCH":"2804","MEAN_MOTION":"15.08852975","RCS_SIZE":"LARGE","MEAN_ANOMALY":"318.8626","TLE_LINE2":"2 52684  53.2146 188.5616 0002376  41.2545 318.8626 15.08852975 28040","GP_ID":"217589707","LAUNCH_DATE":"2022-05-18","ECCENTRICITY":"0.00023760","SITE":"AFETR"},{"OBJECT_TYPE":"PAYLOAD","BSTAR":"0.00010015000000","ELEMENT_SET_NO":"999","INCLINATION":"53.2176","OBJECT_NAME":"STARLINK-4029","OBJECT_ID":"2022-053AF","FILE":"3652635","CENTER_NAME":"EARTH","COUNTRY_CODE":"US","MEAN_MOTION_DOT":"0.00001306","MEAN_MOTION_DDOT":"0.0000000000000","TLE_LINE1":"1 52685U 22053AF  22316.87321709  .00001306  00000-0  10015-3 0  9999","PERIAPSIS":"538.141","NORAD_CAT_ID":"52685","APOAPSIS":"541.352","TIME_SYSTEM":"UTC","REF_FRAME":"TEME","MEAN_ELEMENT_THEORY":"SGP4","SEMIMAJOR_AXIS":"6917.882","PERIOD":"95.438","EPOCH":"2022-11-12T20:57:25.956576","DECAY_DATE":null,"RA_OF_ASC_NODE":"188.6578","ARG_OF_PERICENTER":"38.3673","CLASSIFICATION_TYPE":"U","REV_AT_EPOCH":"2802","EPHEMERIS_TYPE":"0","MEAN_MOTION":"15.08839604","RCS_SIZE":"LARGE","MEAN_ANOMALY":"321.7484","TLE_LINE2":"2 52685  53.2176 188.6578 0002321  38.3673 321.7484 15.08839604 28028","LAUNCH_DATE":"2022-05-18","GP_ID":"217589717","SITE":"AFETR","ECCENTRICITY":"0.00023210"},{"TLE_LINE2":"2 52686  53.2158 188.6137 0001983  47.7098 312.4062 15.08846721 28036","MEAN_ANOMALY":"312.4062","RCS_SIZE":"LARGE","ECCENTRICITY":"0.00019830","SITE":"AFETR","LAUNCH_DATE":"2022-05-18","GP_ID":"217590056","CLASSIFICATION_TYPE":"U","ARG_OF_PERICENTER":"47.7098","RA_OF_ASC_NODE":"188.6137","EPOCH":"2022-11-12T21:13:21.156096","DECAY_DATE":null,"MEAN_MOTION":"15.08846721","EPHEMERIS_TYPE":"0","REV_AT_EPOCH":"2803","MEAN_ELEMENT_THEORY":"SGP4","REF_FRAME":"TEME","TIME_SYSTEM":"UTC","APOAPSIS":"541.097","NORAD_CAT_ID":"52686","PERIAPSIS":"538.353","TLE_LINE1":"1 52686U 22053AG  22316.88427264  .00004015  00000-0  27018-3 0  9995","PERIOD":"95.437","SEMIMAJOR_AXIS":"6917.860","INCLINATION":"53.2158","ELEMENT_SET_NO":"999","OBJECT_TYPE":"PAYLOAD","BSTAR":"0.00027018000000","MEAN_MOTION_DDOT":"0.0000000000000","MEAN_MOTION_DOT":"0.00004015","COUNTRY_CODE":"US","CENTER_NAME":"EARTH","FILE":"3652635","OBJECT_NAME":"STARLINK-4005","OBJECT_ID":"2022-053AG"}];
